[{"OBJECT_NAME":"STARLINK-6065","OBJECT_ID":"2023-078AX","EPOCH":"2026-03-09T22:30:16.756416","MEAN_MOTION":14.98329897,"ECCENTRICITY":0.00029586,"INCLINATION":69.9999,"RA_OF_ASC_NODE":323.7173,"ARG_OF_PERICENTER":270.2729,"MEAN_ANOMALY":89.8091,"EPHEMERIS_TYPE":0,"CLASSIFICATION_TYPE":"U","NORAD_CAT_ID":56812,"ELEMENT_SET_NO":999,"REV_AT_EPOCH":15321,"BSTAR":5.9991108e-5,"MEAN_MOTION_DOT":6.23e-6,"MEAN_MOTION_DDOT":0},{"OBJECT_NAME":"DELTA 1 R\/B(1)","OBJECT_ID":"1977-048B","EPOCH":"2026-03-09T10:59:30.987456","MEAN_MOTION":13.38972094,"ECCENTRICITY":0.07269425,"INCLINATION":28.4195,"RA_OF_ASC_NODE":233.6552,"ARG_OF_PERICENTER":263.7493,"MEAN_ANOMALY":87.9832,"EPHEMERIS_TYPE":0,"CLASSIFICATION_TYPE":"U","NORAD_CAT_ID":10062,"ELEMENT_SET_NO":999,"REV_AT_EPOCH":37364,"BSTAR":0.00014514568,"MEAN_MOTION_DOT":5.06e-6,"MEAN_MOTION_DDOT":0}]
